[
  {
    "PLACE_NAME": "서울특별시 송파구1",
    "LAT": 37.511945,
    "LNG": 127.1275154,
    "DANGER" : 0
  },
  {
    "PLACE_NAME": "서울특별시 송파구2",
    "LAT": 37.4892227,
    "LNG": 127.108947,
    "DANGER" : 0
  },
  {
    "PLACE_NAME": "서울특별시 송파구3",
    "LAT": 37.51332,
    "LNG": 127.0998589,
    "DANGER" : 0
  },
  {
    "PLACE_NAME": "서울특별시 송파구4",
    "LAT": 37.4799598,
    "LNG": 127.1179497,
    "DANGER" : 0
  },
  {
    "PLACE_NAME": "서울특별시 송파구5",
    "LAT": 37.5260548,
    "LNG": 127.1179248,
    "DANGER" : 0
  },
  {
    "PLACE_NAME": "서울특별시 송파구6",
    "LAT": 37.5249218,
    "LNG": 127.1026616,
    "DANGER" : 0
  },
  {
    "PLACE_NAME": "서울특별시 송파구7",
    "LAT": 37.492449,
    "LNG": 127.1180388,
    "DANGER" : 0
  },
  {
    "PLACE_NAME": "서울특별시 송파구8",
    "LAT": 37.5072632,
    "LNG": 127.0926175,
    "DANGER" : 0
  },
  {
    "PLACE_NAME": "서울특별시 송파구9",
    "LAT": 37.4998154,
    "LNG": 127.1177034,
    "DANGER" : 0
  },
  {
    "PLACE_NAME": "서울특별시 송파구10",
    "LAT": 37.5025524,
    "LNG": 127.0990502,
    "DANGER" : 0
  },
  {
    "PLACE_NAME": "서울특별시 송파구11",
    "LAT": 37.5189748,
    "LNG": 127.0894302,
    "DANGER" : 0
  },
  {
    "PLACE_NAME": "서울특별시 송파구12",
    "LAT": 37.5049668,
    "LNG": 127.1061708,
    "DANGER" : 0
  },
  {
    "PLACE_NAME": "서울특별시 송파구13",
    "LAT": 37.5355681,
    "LNG": 127.1219718,
    "DANGER" : 0
  },
  {
    "PLACE_NAME": "서울특별시 송파구14",
    "LAT": 37.493367,
    "LNG": 127.1442467,
    "DANGER" : 0
  }
]